{
  "type": "FeatureCollection",
  "features": [
    {
      "type": "Feature",
      "properties": {
        "norad_id": 44793,
        "name": "BEIDOU-3 M22 (C44)",
        "group": "beidou",
        "lat": -53.26921642887489,
        "lon": -129.75072290227735,
        "alt_km": 21538.26140104317,
        "timestamp": "2025-12-20T03:42:47.658571+00:00",
        "meta_object_name": "BEIDOU-3 M22 (C44)",
        "meta_object_id": "2019-078A",
        "meta_epoch": "2025-12-19T04:51:35.344224",
        "meta_mean_motion": 1.86232161,
        "meta_eccentricity": 0.0006038,
        "meta_inclination": 54.1023,
        "meta_ra_of_asc_node": 306.1592,
        "meta_arg_of_pericenter": 24.3104,
        "meta_mean_anomaly": 335.7082,
        "meta_ephemeris_type": 0,
        "meta_classification_type": "U",
        "meta_norad_cat_id": 44793,
        "meta_element_set_no": 999,
        "meta_rev_at_epoch": 4129,
        "meta_bstar": 0,
        "meta_mean_motion_dot": -7.7e-07,
        "meta_mean_motion_ddot": 0,
        "tle_line1": "1 44793U 19078A   25353.20249241 -.00000077  00000+0  00000+0 0  9997",
        "tle_line2": "2 44793  54.1023 306.1592 0006038  24.3104 335.7082  1.86232161 41295"
      },
      "geometry": {
        "type": "Point",
        "coordinates": [
          -129.75072290227735,
          -53.26921642887489
        ]
      }
    },
    {
      "type": "Feature",
      "properties": {
        "norad_id": 44794,
        "name": "BEIDOU-3 M21 (C43)",
        "group": "beidou",
        "lat": -4.911271448974136,
        "lon": 129.63446298861328,
        "alt_km": 21540.686085824298,
        "timestamp": "2025-12-20T03:42:47.658583+00:00",
        "meta_object_name": "BEIDOU-3 M21 (C43)",
        "meta_object_id": "2019-078B",
        "meta_epoch": "2025-12-16T15:43:55.727904",
        "meta_mean_motion": 1.86227668,
        "meta_eccentricity": 0.00041169,
        "meta_inclination": 54.078,
        "meta_ra_of_asc_node": 306.2132,
        "meta_arg_of_pericenter": 11.942,
        "meta_mean_anomaly": 348.0544,
        "meta_ephemeris_type": 0,
        "meta_classification_type": "U",
        "meta_norad_cat_id": 44794,
        "meta_element_set_no": 999,
        "meta_rev_at_epoch": 4125,
        "meta_bstar": 0,
        "meta_mean_motion_dot": -9.5e-07,
        "meta_mean_motion_ddot": 0,
        "tle_line1": "1 44794U 19078B   25350.65550611 -.00000095  00000+0  00000+0 0  9990",
        "tle_line2": "2 44794  54.0780 306.2132 0004116  11.9420 348.0544  1.86227668 41256"
      },
      "geometry": {
        "type": "Point",
        "coordinates": [
          129.63446298861328,
          -4.911271448974136
        ]
      }
    },
    {
      "type": "Feature",
      "properties": {
        "norad_id": 44864,
        "name": "BEIDOU-3 M19 (C41)",
        "group": "beidou",
        "lat": 18.190404281011688,
        "lon": 81.33206303892008,
        "alt_km": 21532.08275892962,
        "timestamp": "2025-12-20T03:42:47.658594+00:00",
        "meta_object_name": "BEIDOU-3 M19 (C41)",
        "meta_object_id": "2019-090A",
        "meta_epoch": "2025-12-19T16:54:49.288032",
        "meta_mean_motion": 1.86231654,
        "meta_eccentricity": 0.001828,
        "meta_inclination": 56.3986,
        "meta_ra_of_asc_node": 68.7306,
        "meta_arg_of_pericenter": 284.9962,
        "meta_mean_anomaly": 155.1499,
        "meta_ephemeris_type": 0,
        "meta_classification_type": "U",
        "meta_norad_cat_id": 44864,
        "meta_element_set_no": 999,
        "meta_rev_at_epoch": 4089,
        "meta_bstar": 0,
        "meta_mean_motion_dot": -5e-07,
        "meta_mean_motion_ddot": 0,
        "tle_line1": "1 44864U 19090A   25353.70473713 -.00000050  00000+0  00000+0 0  9999",
        "tle_line2": "2 44864  56.3986  68.7306 0018280 284.9962 155.1499  1.86231654 40895"
      },
      "geometry": {
        "type": "Point",
        "coordinates": [
          81.33206303892008,
          18.190404281011688
        ]
      }
    },
    {
      "type": "Feature",
      "properties": {
        "norad_id": 44865,
        "name": "BEIDOU-3 M20 (C42)",
        "group": "beidou",
        "lat": 50.84025074941468,
        "lon": -165.82540234970682,
        "alt_km": 21564.869373762907,
        "timestamp": "2025-12-20T03:42:47.658636+00:00",
        "meta_object_name": "BEIDOU-3 M20 (C42)",
        "meta_object_id": "2019-090B",
        "meta_epoch": "2025-12-19T13:23:47.716224",
        "meta_mean_motion": 1.86231656,
        "meta_eccentricity": 0.0015458,
        "meta_inclination": 56.4001,
        "meta_ra_of_asc_node": 68.7697,
        "meta_arg_of_pericenter": 297.1258,
        "meta_mean_anomaly": 134.3818,
        "meta_ephemeris_type": 0,
        "meta_classification_type": "U",
        "meta_norad_cat_id": 44865,
        "meta_element_set_no": 999,
        "meta_rev_at_epoch": 4087,
        "meta_bstar": 0,
        "meta_mean_motion_dot": -5.2e-07,
        "meta_mean_motion_ddot": 0,
        "tle_line1": "1 44865U 19090B   25353.55819116 -.00000052  00000+0  00000+0 0  9996",
        "tle_line2": "2 44865  56.4001  68.7697 0015458 297.1258 134.3818  1.86231656 40870"
      },
      "geometry": {
        "type": "Point",
        "coordinates": [
          -165.82540234970682,
          50.84025074941468
        ]
      }
    },
    {
      "type": "Feature",
      "properties": {
        "norad_id": 45344,
        "name": "BEIDOU-3 G2 (C60)",
        "group": "beidou",
        "lat": -0.04921410474042266,
        "lon": -135.30668930391312,
        "alt_km": 35780.333265405774,
        "timestamp": "2025-12-20T03:42:47.658660+00:00",
        "meta_object_name": "BEIDOU-3 G2 (C60)",
        "meta_object_id": "2020-017A",
        "meta_epoch": "2025-12-19T13:38:45.370752",
        "meta_mean_motion": 1.00273166,
        "meta_eccentricity": 0.0002079,
        "meta_inclination": 2.5096,
        "meta_ra_of_asc_node": 44.0024,
        "meta_arg_of_pericenter": 233.0917,
        "meta_mean_anomaly": 96.0359,
        "meta_ephemeris_type": 0,
        "meta_classification_type": "U",
        "meta_norad_cat_id": 45344,
        "meta_element_set_no": 999,
        "meta_rev_at_epoch": 2145,
        "meta_bstar": 0,
        "meta_mean_motion_dot": -1.18e-06,
        "meta_mean_motion_ddot": 0,
        "tle_line1": "1 45344U 20017A   25353.56858068 -.00000118  00000+0  00000+0 0  9993",
        "tle_line2": "2 45344   2.5096  44.0024 0002079 233.0917  96.0359  1.00273166 21451"
      },
      "geometry": {
        "type": "Point",
        "coordinates": [
          -135.30668930391312,
          -0.04921410474042266
        ]
      }
    },
    {
      "type": "Feature",
      "properties": {
        "norad_id": 45807,
        "name": "BEIDOU-3 G3 (C61)",
        "group": "beidou",
        "lat": -0.325135085618311,
        "lon": -104.80630477249281,
        "alt_km": 35800.3654128524,
        "timestamp": "2025-12-20T03:42:47.658674+00:00",
        "meta_object_name": "BEIDOU-3 G3 (C61)",
        "meta_object_id": "2020-040A",
        "meta_epoch": "2025-12-19T15:57:04.317984",
        "meta_mean_motion": 1.0027087,
        "meta_eccentricity": 0.00064381,
        "meta_inclination": 2.0073,
        "meta_ra_of_asc_node": 66.6426,
        "meta_arg_of_pericenter": 309.3483,
        "meta_mean_anomaly": 62.3662,
        "meta_ephemeris_type": 0,
        "meta_classification_type": "U",
        "meta_norad_cat_id": 45807,
        "meta_element_set_no": 999,
        "meta_rev_at_epoch": 2027,
        "meta_bstar": 0,
        "meta_mean_motion_dot": -3.31e-06,
        "meta_mean_motion_ddot": 0,
        "tle_line1": "1 45807U 20040A   25353.66463331 -.00000331  00000+0  00000+0 0  9996",
        "tle_line2": "2 45807   2.0073  66.6426 0006438 309.3483  62.3662  1.00270870 20270"
      },
      "geometry": {
        "type": "Point",
        "coordinates": [
          -104.80630477249281,
          -0.325135085618311
        ]
      }
    },
    {
      "type": "Feature",
      "properties": {
        "norad_id": 56564,
        "name": "BEIDOU-3 G4 (C62)",
        "group": "beidou",
        "lat": 0.010410034425687395,
        "lon": -55.23836667689267,
        "alt_km": 35794.33987133393,
        "timestamp": "2025-12-20T03:42:47.658689+00:00",
        "meta_object_name": "BEIDOU-3 G4 (C62)",
        "meta_object_id": "2023-066A",
        "meta_epoch": "2025-12-19T19:36:37.155744",
        "meta_mean_motion": 1.00271581,
        "meta_eccentricity": 0.0002729,
        "meta_inclination": 0.8001,
        "meta_ra_of_asc_node": 302.5987,
        "meta_arg_of_pericenter": 226.497,
        "meta_mean_anomaly": 13.7807,
        "meta_ephemeris_type": 0,
        "meta_classification_type": "U",
        "meta_norad_cat_id": 56564,
        "meta_element_set_no": 999,
        "meta_rev_at_epoch": 959,
        "meta_bstar": 0,
        "meta_mean_motion_dot": -8.6e-07,
        "meta_mean_motion_ddot": 0,
        "tle_line1": "1 56564U 23066A   25353.81709671 -.00000086  00000+0  00000+0 0  9993",
        "tle_line2": "2 56564   0.8001 302.5987 0002729 226.4970  13.7807  1.00271581  9595"
      },
      "geometry": {
        "type": "Point",
        "coordinates": [
          -55.23836667689267,
          0.010410034425687395
        ]
      }
    }
  ]
}